{
  "links" : {
    "next" : "https://api.nasa.gov/neo/rest/v1/feed?start_date=2016-06-16&end_date=2016-06-16&detailed=true&api_key=t0TVs3DtDT2H8Oy2Zy8m2eVrNsAVKAexjcZXUckd",
    "prev" : "https://api.nasa.gov/neo/rest/v1/feed?start_date=2016-06-14&end_date=2016-06-14&detailed=true&api_key=t0TVs3DtDT2H8Oy2Zy8m2eVrNsAVKAexjcZXUckd",
    "self" : "https://api.nasa.gov/neo/rest/v1/feed?start_date=2016-06-15&end_date=2016-06-15&detailed=true&api_key=t0TVs3DtDT2H8Oy2Zy8m2eVrNsAVKAexjcZXUckd"
  },
  "element_count" : 14,
  "near_earth_objects" : {
    "2016-06-15" : [ {
      "links" : {
        "self" : "https://api.nasa.gov/neo/rest/v1/neo/3735682?api_key=t0TVs3DtDT2H8Oy2Zy8m2eVrNsAVKAexjcZXUckd"
      },
      "neo_reference_id" : "3735682",
      "name" : "(2015 XZ1)",
      "nasa_jpl_url" : "http://ssd.jpl.nasa.gov/sbdb.cgi?sstr=3735682",
      "absolute_magnitude_h" : 25.0,
      "estimated_diameter" : {
        "kilometers" : {
          "estimated_diameter_min" : 0.02658,
          "estimated_diameter_max" : 0.0594346868
        },
        "meters" : {
          "estimated_diameter_min" : 26.58,
          "estimated_diameter_max" : 59.4346868419
        },
        "miles" : {
          "estimated_diameter_min" : 0.0165160412,
          "estimated_diameter_max" : 0.0369309908
        },
        "feet" : {
          "estimated_diameter_min" : 87.2047272,
          "estimated_diameter_max" : 194.9956979785
        }
      },
      "is_potentially_hazardous_asteroid" : false,
      "close_approach_data" : [ {
        "close_approach_date" : "2016-06-15",
        "epoch_date_close_approach" : 1465974000000,
        "relative_velocity" : {
          "kilometers_per_second" : "10.0957216027",
          "kilometers_per_hour" : "36344.5977695461",
          "miles_per_hour" : "22583.1196529716"
        },
        "miss_distance" : {
          "astronomical" : "0.3299646311",
          "lunar" : "128.3562469482",
          "kilometers" : "49362008",
          "miles" : "30672130"
        },
        "orbiting_body" : "Earth"
      } ],
      "orbital_data" : {
        "orbit_id" : "11",
        "orbit_determination_date" : "2017-04-06 08:30:14",
        "orbit_uncertainty" : "7",
        "minimum_orbit_intersection" : ".0410725",
        "jupiter_tisserand_invariant" : "5.628",
        "epoch_osculation" : "2458000.5",
        "eccentricity" : ".1782555654508681",
        "semi_major_axis" : "1.088416416836874",
        "inclination" : "19.79766203649442",
        "ascending_node_longitude" : "74.81880356350158",
        "orbital_period" : "414.7544481672146",
        "perihelion_distance" : ".8944001330076097",
        "perihelion_argument" : "82.563382150837",
        "aphelion_distance" : "1.282432700666139",
        "perihelion_time" : "2457850.695438603377",
        "mean_anomaly" : "130.0278811742645",
        "mean_motion" : ".8679834576598935",
        "equinox" : "J2000"
      }
    }, {
      "links" : {
        "self" : "https://api.nasa.gov/neo/rest/v1/neo/3742061?api_key=t0TVs3DtDT2H8Oy2Zy8m2eVrNsAVKAexjcZXUckd"
      },
      "neo_reference_id" : "3742061",
      "name" : "(2016 CK31)",
      "nasa_jpl_url" : "http://ssd.jpl.nasa.gov/sbdb.cgi?sstr=3742061",
      "absolute_magnitude_h" : 27.1,
      "estimated_diameter" : {
        "kilometers" : {
          "estimated_diameter_min" : 0.0101054342,
          "estimated_diameter_max" : 0.0225964377
        },
        "meters" : {
          "estimated_diameter_min" : 10.1054341542,
          "estimated_diameter_max" : 22.5964377109
        },
        "miles" : {
          "estimated_diameter_min" : 0.0062792237,
          "estimated_diameter_max" : 0.0140407711
        },
        "feet" : {
          "estimated_diameter_min" : 33.1543125905,
          "estimated_diameter_max" : 74.1352966996
        }
      },
      "is_potentially_hazardous_asteroid" : false,
      "close_approach_data" : [ {
        "close_approach_date" : "2016-06-15",
        "epoch_date_close_approach" : 1465974000000,
        "relative_velocity" : {
          "kilometers_per_second" : "3.7345051195",
          "kilometers_per_hour" : "13444.2184301488",
          "miles_per_hour" : "8353.7145017777"
        },
        "miss_distance" : {
          "astronomical" : "0.3058387907",
          "lunar" : "118.9712905884",
          "kilometers" : "45752832",
          "miles" : "28429492"
        },
        "orbiting_body" : "Earth"
      } ],
      "orbital_data" : {
        "orbit_id" : "7",
        "orbit_determination_date" : "2017-04-06 08:28:35",
        "orbit_uncertainty" : "6",
        "minimum_orbit_intersection" : ".00476571",
        "jupiter_tisserand_invariant" : "4.909",
        "epoch_osculation" : "2458000.5",
        "eccentricity" : ".2881836169198577",
        "semi_major_axis" : "1.316252853296001",
        "inclination" : "6.864233806333096",
        "ascending_node_longitude" : "139.8050685402153",
        "orbital_period" : "551.5786090558988",
        "perihelion_distance" : ".9369303452520766",
        "perihelion_argument" : "41.66191810571343",
        "aphelion_distance" : "1.695575361339926",
        "perihelion_time" : "2458014.194949392144",
        "mean_anomaly" : "351.0616878533225",
        "mean_motion" : ".6526721560435214",
        "equinox" : "J2000"
      }
    }, {
      "links" : {
        "self" : "https://api.nasa.gov/neo/rest/v1/neo/2467352?api_key=t0TVs3DtDT2H8Oy2Zy8m2eVrNsAVKAexjcZXUckd"
      },
      "neo_reference_id" : "2467352",
      "name" : "467352 (2003 KZ18)",
      "nasa_jpl_url" : "http://ssd.jpl.nasa.gov/sbdb.cgi?sstr=2467352",
      "absolute_magnitude_h" : 21.3,
      "estimated_diameter" : {
        "kilometers" : {
          "estimated_diameter_min" : 0.1460679643,
          "estimated_diameter_max" : 0.3266178974
        },
        "meters" : {
          "estimated_diameter_min" : 146.0679642714,
          "estimated_diameter_max" : 326.6178974458
        },
        "miles" : {
          "estimated_diameter_min" : 0.090762397,
          "estimated_diameter_max" : 0.2029508896
        },
        "feet" : {
          "estimated_diameter_min" : 479.2256199,
          "estimated_diameter_max" : 1071.581062656
        }
      },
      "is_potentially_hazardous_asteroid" : false,
      "close_approach_data" : [ {
        "close_approach_date" : "2016-06-15",
        "epoch_date_close_approach" : 1465974000000,
        "relative_velocity" : {
          "kilometers_per_second" : "17.2650896277",
          "kilometers_per_hour" : "62154.3226597232",
          "miles_per_hour" : "38620.2789882041"
        },
        "miss_distance" : {
          "astronomical" : "0.246604307",
          "lunar" : "95.9290771484",
          "kilometers" : "36891480",
          "miles" : "22923302"
        },
        "orbiting_body" : "Earth"
      } ],
      "orbital_data" : {
        "orbit_id" : "38",
        "orbit_determination_date" : "2017-04-06 09:19:26",
        "orbit_uncertainty" : "0",
        "minimum_orbit_intersection" : ".159331",
        "jupiter_tisserand_invariant" : "6.222",
        "epoch_osculation" : "2458000.5",
        "eccentricity" : ".3306227599692891",
        "semi_major_axis" : ".9487013434463354",
        "inclination" : "23.89932941585244",
        "ascending_node_longitude" : "249.9855551551862",
        "orbital_period" : "337.5147058667853",
        "perihelion_distance" : ".6350390868895355",
        "perihelion_argument" : "154.606472342588",
        "aphelion_distance" : "1.262363600003135",
        "perihelion_time" : "2457981.510822181740",
        "mean_anomaly" : "20.25424046936739",
        "mean_motion" : "1.066620190890555",
        "equinox" : "J2000"
      }
    } ]
  }
}